{"type": "FeatureCollection", "features": [ {"type": "Feature", "properties": {"norad_id": 34874, "name": "COSMOS 2251 DEB", "group": "cosmos-2251-debris", "lat": 70.54623859573357, "lon": -163.78942506684143, "alt_km": 727.2904352451596, "timestamp": "2025-12-14T14:39:29.764426+00:00", "meta": {"OBJECT_NAME": "COSMOS 2251 DEB", "OBJECT_ID": "1993-036ACM", "EPOCH": "2025-12-13T15:06:41.355648", "MEAN_MOTION": 14.36316745, "ECCENTRICITY": 0.00509273, "INCLINATION": 74.0396, "RA_OF_ASC_NODE": 72.1302, "ARG_OF_PERICENTER": 97.1629, "MEAN_ANOMALY": 332.9464, "EPHEMERIS_TYPE": 0, "CLASSIFICATION_TYPE": "U", "NORAD_CAT_ID": 34874, "ELEMENT_SET_NO": 999, "REV_AT_EPOCH": 87057, "BSTAR": 0.0010808873, "MEAN_MOTION_DOT": 3.183e-05, "MEAN_MOTION_DDOT": 0}, "tle": {"line1": "1 34874U 93036ACM 25347.62964532  .00003183  00000+0  10809-2 0  9999", "line2": "2 34874  74.0396  72.1302 0050927  97.1629 332.9464 14.36316745870577"}}, "geometry": {"type": "Point", "coordinates": [-163.78942506684143, 70.54623859573357]}}, {"type": "Feature", "properties": {"norad_id": 34875, "name": "COSMOS 2251 DEB", "group": "cosmos-2251-debris", "lat": -55.271511082053316, "lon": -0.9122797149478316, "alt_km": 726.930678439132, "timestamp": "2025-12-14T14:39:29.764435+00:00", "meta": {"OBJECT_NAME": "COSMOS 2251 DEB", "OBJECT_ID": "1993-036ACN", "EPOCH": "2025-12-13T17:44:40.100064", "MEAN_MOTION": 14.48930089, "ECCENTRICITY": 0.00161914, "INCLINATION": 74.0438, "RA_OF_ASC_NODE": 156.3421, "ARG_OF_PERICENTER": 280.0228, "MEAN_ANOMALY": 95.2215, "EPHEMERIS_TYPE": 0, "CLASSIFICATION_TYPE": "U", "NORAD_CAT_ID": 34875, "ELEMENT_SET_NO": 999, "REV_AT_EPOCH": 87770, "BSTAR": 0.00064980586, "MEAN_MOTION_DOT": 2.438e-05, "MEAN_MOTION_DDOT": 0}, "tle": {"line1": "1 34875U 93036ACN 25347.73935301  .00002438  00000+0  64981-3 0  9997", "line2": "2 34875  74.0438 156.3421 0016191 280.0228  95.2215 14.48930089877706"}}, "geometry": {"type": "Point", "coordinates": [-0.9122797149478316, -55.271511082053316]}}, {"type": "Feature", "properties": {"norad_id": 34878, "name": "COSMOS 2251 DEB", "group": "cosmos-2251-debris", "lat": 21.07437679583748, "lon": 50.72037240345925, "alt_km": 769.1836668116621, "timestamp": "2025-12-14T14:39:29.764446+00:00", "meta": {"OBJECT_NAME": "COSMOS 2251 DEB", "OBJECT_ID": "1993-036ACR", "EPOCH": "2025-12-09T11:24:21.665664", "MEAN_MOTION": 13.44185831, "ECCENTRICITY": 0.04353122, "INCLINATION": 73.9652, "RA_OF_ASC_NODE": 52.502, "ARG_OF_PERICENTER": 36.6708, "MEAN_ANOMALY": 343.8238, "EPHEMERIS_TYPE": 0, "CLASSIFICATION_TYPE": "U", "NORAD_CAT_ID": 34878, "ELEMENT_SET_NO": 999, "REV_AT_EPOCH": 81229, "BSTAR": 0.00088072379, "MEAN_MOTION_DOT": 8.84e-06, "MEAN_MOTION_DDOT": 0}, "tle": {"line1": "1 34878U 93036ACR 25343.47525076  .00000884  00000+0  88072-3 0  9991", "line2": "2 34878  73.9652  52.5020 0435312  36.6708 343.8238 13.44185831812297"}}, "geometry": {"type": "Point", "coordinates": [50.72037240345925, 21.07437679583748]}}, {"type": "Feature", "properties": {"norad_id": 34882, "name": "COSMOS 2251 DEB", "group": "cosmos-2251-debris", "lat": -73.64156046146815, "lon": 119.06482887174504, "alt_km": 686.4386400141466, "timestamp": "2025-12-14T14:39:29.764473+00:00", "meta": {"OBJECT_NAME": "COSMOS 2251 DEB", "OBJECT_ID": "1993-036ACV", "EPOCH": "2025-12-12T15:26:33.087264", "MEAN_MOTION": 14.61597611, "ECCENTRICITY": 0.00828094, "INCLINATION": 74.0462, "RA_OF_ASC_NODE": 225.7751, "ARG_OF_PERICENTER": 352.7324, "MEAN_ANOMALY": 7.2634, "EPHEMERIS_TYPE": 0, "CLASSIFICATION_TYPE": "U", "NORAD_CAT_ID": 34882, "ELEMENT_SET_NO": 999, "REV_AT_EPOCH": 88523, "BSTAR": 0.00026902724, "MEAN_MOTION_DOT": 1.371e-05, "MEAN_MOTION_DDOT": 0}, "tle": {"line1": "1 34882U 93036ACV 25346.64343851  .00001371  00000+0  26903-3 0  9994", "line2": "2 34882  74.0462 225.7751 0082809 352.7324   7.2634 14.61597611885231"}}, "geometry": {"type": "Point", "coordinates": [119.06482887174504, -73.64156046146815]}}, {"type": "Feature", "properties": {"norad_id": 34883, "name": "COSMOS 2251 DEB", "group": "cosmos-2251-debris", "lat": -62.50344459007482, "lon": -87.8086194187348, "alt_km": 659.8901078946637, "timestamp": "2025-12-14T14:39:29.764485+00:00", "meta": {"OBJECT_NAME": "COSMOS 2251 DEB", "OBJECT_ID": "1993-036ACW", "EPOCH": "2025-12-12T05:16:46.096608", "MEAN_MOTION": 14.51477124, "ECCENTRICITY": 0.00951451, "INCLINATION": 74.1989, "RA_OF_ASC_NODE": 63.6857, "ARG_OF_PERICENTER": 248.9733, "MEAN_ANOMALY": 110.1233, "EPHEMERIS_TYPE": 0, "CLASSIFICATION_TYPE": "U", "NORAD_CAT_ID": 34883, "ELEMENT_SET_NO": 999, "REV_AT_EPOCH": 86432, "BSTAR": 0.0063651984, "MEAN_MOTION_DOT": 0.00027049, "MEAN_MOTION_DDOT": 0}, "tle": {"line1": "1 34883U 93036ACW 25346.21997797  .00027049  00000+0  63652-2 0  9993", "line2": "2 34883  74.1989  63.6857 0095145 248.9733 110.1233 14.51477124864321"}}, "geometry": {"type": "Point", "coordinates": [-87.8086194187348, -62.50344459007482]}}, {"type": "Feature", "properties": {"norad_id": 34884, "name": "COSMOS 2251 DEB", "group": "cosmos-2251-debris", "lat": 71.51134894260123, "lon": 111.9911401107564, "alt_km": 588.4344573392491, "timestamp": "2025-12-14T14:39:29.764495+00:00", "meta": {"OBJECT_NAME": "COSMOS 2251 DEB", "OBJECT_ID": "1993-036ACX", "EPOCH": "2025-12-13T22:59:03.971040", "MEAN_MOTION": 14.90153441, "ECCENTRICITY": 0.00023963, "INCLINATION": 74.0176, "RA_OF_ASC_NODE": 54.3017, "ARG_OF_PERICENTER": 74.5287, "MEAN_ANOMALY": 104.0603, "EPHEMERIS_TYPE": 0, "CLASSIFICATION_TYPE": "U", "NORAD_CAT_ID": 34884, "ELEMENT_SET_NO": 999, "REV_AT_EPOCH": 87823, "BSTAR": 0.0026965859, "MEAN_MOTION_DOT": 0.00026175, "MEAN_MOTION_DDOT": 0}, "tle": {"line1": "1 34884U 93036ACX 25347.95768485  .00026175  00000+0  26966-2 0  9992", "line2": "2 34884  74.0176  54.3017 0002396  74.5287 104.0603 14.90153441878231"}}, "geometry": {"type": "Point", "coordinates": [111.9911401107564, 71.51134894260123]}}, {"type": "Feature", "properties": {"norad_id": 34885, "name": "COSMOS 2251 DEB", "group": "cosmos-2251-debris", "lat": 62.00367432474408, "lon": -147.9090916421144, "alt_km": 724.5538468181885, "timestamp": "2025-12-14T14:39:29.764505+00:00", "meta": {"OBJECT_NAME": "COSMOS 2251 DEB", "OBJECT_ID": "1993-036ACY", "EPOCH": "2025-12-14T00:02:36.937824", "MEAN_MOTION": 14.51511666, "ECCENTRICITY": 0.00151751, "INCLINATION": 74.0305, "RA_OF_ASC_NODE": 180.6458, "ARG_OF_PERICENTER": 266.0945, "MEAN_ANOMALY": 219.8839, "EPHEMERIS_TYPE": 0, "CLASSIFICATION_TYPE": "U", "NORAD_CAT_ID": 34885, "ELEMENT_SET_NO": 999, "REV_AT_EPOCH": 87497, "BSTAR": 0.00082035927, "MEAN_MOTION_DOT": 3.258e-05, "MEAN_MOTION_DDOT": 0}, "tle": {"line1": "1 34885U 93036ACY 25348.00181641  .00003258  00000+0  82036-3 0  9991", "line2": "2 34885  74.0305 180.6458 0015175 266.0945 219.8839 14.51511666874973"}}, "geometry": {"type": "Point", "coordinates": [-147.9090916421144, 62.00367432474408]}}, {"type": "Feature", "properties": {"norad_id": 34886, "name": "COSMOS 2251 DEB", "group": "cosmos-2251-debris", "lat": 17.303630632156057, "lon": -177.91899253260294, "alt_km": 429.5256959806429, "timestamp": "2025-12-14T14:39:29.764515+00:00", "meta": {"OBJECT_NAME": "COSMOS 2251 DEB", "OBJECT_ID": "1993-036ACZ", "EPOCH": "2025-12-13T21:25:05.379168", "MEAN_MOTION": 15.38859949, "ECCENTRICITY": 0.00306549, "INCLINATION": 73.9501, "RA_OF_ASC_NODE": 178.4925, "ARG_OF_PERICENTER": 1.8054, "MEAN_ANOMALY": 358.3257, "EPHEMERIS_TYPE": 0, "CLASSIFICATION_TYPE": "U", "NORAD_CAT_ID": 34886, "ELEMENT_SET_NO": 999, "REV_AT_EPOCH": 63016, "BSTAR": 0.0017695785, "MEAN_MOTION_DOT": 0.00069737, "MEAN_MOTION_DDOT": 0}, "tle": {"line1": "1 34886U 93036ACZ 25347.89242337  .00069737  00000+0  17696-2 0  9991", "line2": "2 34886  73.9501 178.4925 0030654   1.8054 358.3257 15.38859949630168"}}, "geometry": {"type": "Point", "coordinates": [-177.91899253260294, 17.303630632156057]}}, {"type": "Feature", "properties": {"norad_id": 34907, "name": "COSMOS 2251 DEB", "group": "cosmos-2251-debris", "lat": -12.34061326519389, "lon": 40.71549413827399, "alt_km": 420.08012009860977, "timestamp": "2025-12-14T14:39:29.764525+00:00", "meta": {"OBJECT_NAME": "COSMOS 2251 DEB", "OBJECT_ID": "1993-036ADC", "EPOCH": "2025-12-13T21:37:21.110592", "MEAN_MOTION": 15.45090165, "ECCENTRICITY": 0.00204412, "INCLINATION": 73.9706, "RA_OF_ASC_NODE": 45.8736, "ARG_OF_PERICENTER": 339.7109, "MEAN_ANOMALY": 20.3287, "EPHEMERIS_TYPE": 0, "CLASSIFICATION_TYPE": "U", "NORAD_CAT_ID": 34907, "ELEMENT_SET_NO": 999, "REV_AT_EPOCH": 87991, "BSTAR": 0.0077288199, "MEAN_MOTION_DOT": 0.0038692, "MEAN_MOTION_DDOT": 0}, "tle": {"line1": "1 34907U 93036ADC 25347.90093878  .00386920  00000+0  77288-2 0  9990", "line2": "2 34907  73.9706  45.8736 0020441 339.7109  20.3287 15.45090165879915"}}, "geometry": {"type": "Point", "coordinates": [40.71549413827399, -12.34061326519389]}}, {"type": "Feature", "properties": {"norad_id": 34908, "name": "COSMOS 2251 DEB", "group": "cosmos-2251-debris", "lat": 31.576054742653298, "lon": 30.336580781781947, "alt_km": 736.3174222068483, "timestamp": "2025-12-14T14:39:29.764535+00:00", "meta": {"OBJECT_NAME": "COSMOS 2251 DEB", "OBJECT_ID": "1993-036ADD", "EPOCH": "2025-12-13T20:56:40.633728", "MEAN_MOTION": 14.37402859, "ECCENTRICITY": 0.00400909, "INCLINATION": 74.0595, "RA_OF_ASC_NODE": 21.5748, "ARG_OF_PERICENTER": 37.2863, "MEAN_ANOMALY": 138.1134, "EPHEMERIS_TYPE": 0, "CLASSIFICATION_TYPE": "U", "NORAD_CAT_ID": 34908, "ELEMENT_SET_NO": 999, "REV_AT_EPOCH": 87295, "BSTAR": 0.00064569198, "MEAN_MOTION_DOT": 1.922e-05, "MEAN_MOTION_DDOT": 0}, "tle": {"line1": "1 34908U 93036ADD 25347.87269252  .00001922  00000+0  64569-3 0  9993", "line2": "2 34908  74.0595  21.5748 0040090  37.2863 138.1134 14.37402859872950"}}, "geometry": {"type": "Point", "coordinates": [30.336580781781947, 31.576054742653298]}}]}